QIANFAN-33              
1 61566U 24185Q   25290.87311042  .00000616  00000+0  43649-3 0  9999
2 61566  88.9749  85.0324 0008352 130.4708 229.7198 13.96477078 61360
QIANFAN-34              
1 61567U 24185R   25290.85342949  .00000692  00000+0  44343-3 0  9994
2 61567  88.9728  84.6722 0007330 132.1697 228.0106 14.02229728 61520
QIANFAN-35              
1 61568U 24185S   25290.84530597  .00001259  00000+0  50351-3 0  9998
2 61568  88.9756  83.4357 0008696 105.7891 254.4263 14.27822630 62202
QIANFAN-36              
1 61569U 24185T   25290.86482931  .00000177  00000+0  23809-3 0  9995
2 61569  88.9734  86.8618 0005640 188.1364 171.9699 13.55564692 60353
QIANFAN-37              
1 62238U 24232B   25290.85164197  .00000151  00000+0  21584-3 0  9992
2 62238  89.0021  46.9587 0001212 118.3469 241.7804 13.50971697 91622
QIANFAN-38              
1 62239U 24232C   25290.87629847  .00000157  00000+0  22510-3 0  9999
2 62239  89.0027  46.8683 0014120   3.8279 356.2978 13.50980140 91687
QIANFAN-39              
1 62240U 24232D   25290.89278017  .00000816  00000+0  34067-3 0  9994
2 62240  89.0024  43.6827 0014118 259.1006 100.8599 14.25294530 93433
QIANFAN-40              
1 62241U 24232E   25290.83512391  .00000163  00000+0  23412-3 0  9992
2 62241  89.0055  46.4413 0013403  12.6076 347.5408 13.50979733 92042
